#dP2020  5 17  0  0  0.00000000      97 __u+U IGS14 FIT  IAC
## 2106      0.00000000   900.00000000 58986 0.0000000000000
+  124   C01C02C03C04C05C06C07C08C09C10C11C12C13C14C16C19C20
+        C21C22C23C24C25C26C27C28C29C30C32C33C34C35C36C37C38
+        C39C40C43C44C45C46C60E01E02E03E04E05E07E08E09E11E12
+        E13E14E15E18E19E21E24E25E26E27E30E31E33E36G01G02G03
+        G04G05G06G07G08G09G10G11G12G13G14G15G16G17G18G19G20
+        G21G22G23G24G25G26G27G28G29G30G31G32J01J02J03J07R01
+        R02R03R04R05R07R08R09R11R12R13R14R15R16R17R18R19R20
+        R21R22R23R24R26  0  0  0  0  0  0  0  0  0  0  0  0
++         0  0  0  0  0  0  0  0  0  0  0  0  0  0  0  0  0
++         0  0  0  0  0  0  0  0  0  0  0  0  0  0  0  0  0
++         0  0  0  0  0  0  0  0  0  0  0  0  0  0  0  0  0
++         0  0  0  0  0  0  0  0  0  0  0  0  0  0  0  0  0
++         0  0  0  0  0  0  0  0  0  0  0  0  0  0  0  0  0
++         0  0  0  0  0  0  0  0  0  0  0  0  0  0  0  0  0
++         0  0  0  0  0  0  0  0  0  0  0  0  0  0  0  0  0
++         0  0  0  0  0  0  0  0  0  0  0  0  0  0  0  0  0
%c M  cc GPS ccc cccc cccc cccc cccc ccccc ccccc ccccc ccccc
%c cc cc ccc ccc cccc cccc cccc cccc ccccc ccccc ccccc ccccc
%f  1.2500000  1.025000000  0.00000000000  0.000000000000000
%f  0.0000000  0.000000000  0.00000000000  0.000000000000000
%i    0    0    0    0      0      0      0      0         0
%i    0    0    0    0      0      0      0      0         0
/* INFORMATION & ANALYSIS CENTER (IAC)            FINAL DATA
/* S/V CLOCKS ARE ALIGNED TO GNSS TIME                      
/* G:C1WC2W R:C1PC2P E:C1XC5X C:C2IC6I J:C1CC2S             
/* PCV:IGS14_2101 OL/AL:FES2004  NONE     YN ORB:CoN CLK:CoN
*  2020 05 17 17 15  0.00000000
PC01 -34387.916273  24386.962878   -233.952305   -504.879384
PC02   4378.489291  41932.351766    959.747030    344.312767
PC03 -14803.544281  39518.725848    -46.144358    736.875081
PC04 -39628.444535  14422.314854   -538.934457   -213.611595
PC05  21925.701881  36029.885913    819.325006   -298.253241
PC06  -8088.190945  26323.742134  32438.798125    734.025200
PC07 -24393.209796  25838.960093 -22871.937934    -40.450908
PC08 -16612.599678  37773.934516  -7708.357432   -257.994278
PC09   6774.599074  34907.097358  23224.576404    546.946366
PC10  -8123.700255  27700.064068 -30681.145096   -932.992699
PC11 -17231.961625  -2899.794675 -21715.256319   -370.589099
PC12 -16810.132980 -20331.916398  -9103.069089    375.379705
PC13  -7386.841743  40841.036792   6733.659133    440.901340
PC14 -27785.968161    662.150577   2875.267498    418.180228
PC16  -4392.317066  27946.880369  31401.297623   -641.942004
PC19  24474.248626  -6843.692232 -11474.799849    415.390217
PC20  26865.936958   5104.006862   5497.020680   -874.174050
PC21 -13351.950000 -14452.208429 -19773.468202   -412.488027
PC22   7763.777410 -15067.549671 -22150.791694   -804.799373
PC23 -11431.121599  24764.880258  -5909.447101   -874.153369
PC24 -16821.828643  -3004.223166  22052.984527   -819.249487
PC25 -19635.010470  16372.545653  11165.991063   -620.201342
PC26  -4778.257009 -18939.432706  19935.914298    684.033429
PC27  12260.862027  25081.476104    121.860159    331.643068
PC28  -1402.131953  22699.810275 -16168.179410   -230.270178
PC29  13927.396952  -7626.645531  22939.255246    229.785924
PC30  19186.442390  12343.953306  16082.301708    318.309796
PC32  13430.388565  14388.629638  19798.601517   -891.747496
PC33 -24488.453353   6975.208406  11458.585798   -834.911208
PC34 -19177.153799 -11896.134822 -16406.537982   -727.528903
PC35    818.992042 -22644.357250  16260.355206   -840.384140
PC36  20037.545924 -15746.023442 -11338.557975   -831.211302
PC37   3805.794859  19454.888168 -19619.410459   -843.252854
PC38 -13363.354223  39896.189461  -1938.326397     78.412870
PC39    534.945339  29693.396129  29994.826204     16.002308
PC40 -15088.726728  22834.263016 -32126.191768     44.239299
PC43 -14217.912091   7337.477281 -22869.781621   -197.846892
PC44 -12963.497818 -24689.977622     19.417016   -226.368779
PC45  11384.812367 -24791.263277   5913.312938    133.985799
PC46  16988.631085   2345.244451 -22011.277072    830.742019
PC60   7272.569439  41491.399840  -2045.318449 999999.999999
PE01 -26528.839811  11593.131137   6163.318289   -858.481969
PE02  26527.416806 -11652.245931  -6088.156394    133.995746
PE03  23996.545516  -1074.301907 -17280.994407   -299.709537
PE04  -7954.511083  15186.010741  24142.301689   -527.293707
PE05  26161.148147  13843.070094   -198.720425   -379.442701
PE07 -13049.423094 -20547.012982 -16838.533547   -383.086519
PE08   7548.420425 -15224.582440 -24227.813690   6176.948471
PE09  13280.326617  20372.653127  16874.701173   6058.229869
PE11   5412.490118  28399.324460   6401.751421   2890.595438
PE12  -7318.486351  25709.370371 -12739.975333   5800.784055
PE13  -5363.149597 -28438.975115  -6184.506372    400.913396
PE14  -3228.052740  22591.991105 -21603.541111  -1017.187349
PE15   7062.020767 -25830.230895  12608.256541    866.738105
PE18  -8886.075616 -21957.555347   9799.705448  -1116.350454
PE19 -24965.025704   -682.726601  15899.420998  -2239.997919
PE21 -20411.473262  -3855.138147  21083.359715   -599.445261
PE24   1996.506427  17497.871584 -23801.930077   5450.839506
PE25  20321.371423   3964.627064 -21151.649303   -510.733753
PE26 -14807.521500 -14017.817890 -21453.776953   3178.683677
PE27  -2269.048987 -17350.677085  23874.051287    218.049919
PE30  17487.252916 -20458.760391  12319.539557   3899.839068
PE31 -17119.525468  20585.990390 -12622.444590   -472.579334
PE33 -15337.660799   8067.959119 -23994.668094   -467.181168
PE36  14642.087147  14362.616370  21349.476706    558.956211
PG01  14045.052474 -17122.658271  14183.592556   -381.349087
PG02 -14103.502928  -5602.946534 -21167.375555   -457.413007
PG03  21643.756526 -12648.848410  -8670.439763   -178.765131
PG04  11062.273261 -10470.934152 -21746.495888    -90.575277
PG05 -24496.456036    108.699565 -10644.918201    -12.852874
PG06  -8608.026370 -17034.990570 -18394.856357   -273.201314
PG07   4875.430969 -25763.048599   2226.824494   -283.276035
PG08  19085.584806    251.049015  18590.882694    -34.319477
PG09    -36.563551 -18501.397112 -19099.076836   -219.095641
PG10   7058.874884  13629.021515  21781.090026   -343.825162
PG11  14199.569126  -8387.686806  20369.904903   -274.670614
PG12 -22818.749120  10754.770114  -8284.249849    116.834431
PG13 -20289.343407  -9161.061017  14438.419546     10.749686
PG14  18440.476345  19183.658568  -1330.096017    -12.339635
PG15 -19193.269094   2305.450170  18055.660136   -230.572105
PG16  25240.160142   1174.291510  -9111.678800   -159.312441
PG17 -13256.059607 -21797.648564   7892.165029    266.238758
PG18  -5862.109033  25854.866921   1441.348817    192.629247
PG19 -17753.436582 -19758.479425   -958.024222   -157.538166
PG20  -4996.572318  17669.925555  19036.728239    527.680283
PG21  -1156.819284  26409.999029   4669.021737     -0.171545
PG22  24925.516398  -8909.018626   1063.572039   -781.978815
PG23  -1493.465929 -18969.211631 -18007.701337   -113.432330
PG24 -14290.868791  15850.749775  15380.840183    -13.151850
PG25 -14725.862915  15642.429275 -15678.711051      4.844906
PG26  18228.416495   7533.479740 -17924.414813    208.190789
PG27  21879.339656  10496.328638  11045.423656   -296.220060
PG28  -7305.598723 -13742.081923  22089.845708    716.629518
PG29  -3925.663147  16104.333875 -20789.692540   -106.550164
PG30  -2686.048223 -23414.094507  12073.913317   -222.137524
PG31   9734.470516  15515.511729 -19107.021462    -43.019988
PG32  15250.567310  20799.209570   6745.894313    282.361488
PJ01 -29478.638087  23077.780067  24481.444070   -302.767886
PJ02 -34634.386507  24123.091340   3351.581195     -0.120848
PJ03 -20829.759169  21468.231569 -25143.715082     -3.066794
PJ07 -25360.155595  33688.867322     34.276511      0.023815
PR01   2664.103057 -10776.456788 -22957.669093     61.669409
PR02 -18381.615057 -11191.833170 -13604.927868    427.126337
PR03 -24880.728610  -4383.814412   3387.356851     15.168914
PR04 -17145.276864   4707.284807  18322.195094     49.458218
PR05    258.613501  11165.981444  22950.154704     50.631142
PR07  24882.920090   4194.090383  -3828.037002    -36.615623
PR08  17208.331531  -4717.354765 -18175.253745    -52.289116
PR09   8912.638861   6875.370614 -22876.072616    133.081307
PR11  18164.644930 -17749.440401  -2073.560126    -23.909498
PR12   9090.807853 -19266.577953  14068.514948    131.529783
PR13  -5758.488251  -9738.485157  22842.412180    -38.778520
PR14 -17164.023425   5459.609598  18078.726219     51.318374
PR15 -18499.171091  17307.995012   3002.459715    106.489540
PR16  -8130.332797  19306.621324 -14489.943384     -3.590563
PR17 -12179.404519  -7482.149156 -21130.224538    325.575393
PR18  -7293.073631  10601.628170 -22025.638415     35.659003
PR19    616.574017  22753.738161 -11519.099729    -93.748682
PR20   9456.008971  22324.451867   8012.572878   -411.936840
PR21  11981.873758   6498.536817  21552.778254   -125.131927
PR22   6226.644602 -12834.251098  21113.579557     -1.684650
PR23  -4554.956664 -24581.950751   5039.070558    306.099467
PR24  -9978.810243 -21838.587806  -8609.520810     -1.166434
PR26   8298.157890  23871.400119   3376.797595   -395.909892
EOF
